CSS (TIANHE)            
1 48274U 21035A   26192.62540877  .00001368  00000+0  21992-4 0  9999
2 48274  41.4689 173.4699 0002534 289.9919  70.0645 15.58019839296984
