{"fetched_at":"2026-07-12T07:15:27.281Z","source":"https://celestrak.org/NORAD/elements/gp.php?GROUP=stations&FORMAT=JSON","constellation":"tiangong","records":[{"OBJECT_NAME":"CSS (TIANHE)","OBJECT_ID":"2021-035A","EPOCH":"2026-07-11T15:00:35.317728","CLASSIFICATION_TYPE":"U","MEAN_MOTION":15.58019839,"ECCENTRICITY":0.00025345,"INCLINATION":41.4689,"RA_OF_ASC_NODE":173.4699,"ARG_OF_PERICENTER":289.9919,"MEAN_ANOMALY":70.0645,"EPHEMERIS_TYPE":0,"NORAD_CAT_ID":48274,"ELEMENT_SET_NO":999,"REV_AT_EPOCH":29698,"BSTAR":0.000021991574,"MEAN_MOTION_DOT":0.00001368,"MEAN_MOTION_DDOT":0}]}
